start=new Date('2023-06-10T00:00:00.000Z').valueOf();
sats=[{"SEMIMAJOR_AXIS":"6917.814","CENTER_NAME":"EARTH","RCS_SIZE":"LARGE","PERIOD":"95.436","NORAD_CAT_ID":"53574","MEAN_MOTION_DOT":"-0.00001671","ECCENTRICITY":"0.00004340","PERIAPSIS":"539.379","ELEMENT_SET_NO":"999","OBJECT_ID":"2022-101AZ","DECAY_DATE":null,"OBJECT_NAME":"STARLINK-4559","APOAPSIS":"539.980","SITE":"AFETR","GP_ID":"233553401","ARG_OF_PERICENTER":"82.5105","MEAN_MOTION_DDOT":"0.0000000000000","FILE":"3928988","BSTAR":"-0.00008690400000","REV_AT_EPOCH":"4485","MEAN_MOTION":"15.08861589","LAUNCH_DATE":"2022-08-19","OBJECT_TYPE":"PAYLOAD","TIME_SYSTEM":"UTC","MEAN_ANOMALY":"277.5937","MEAN_ELEMENT_THEORY":"SGP4","CLASSIFICATION_TYPE":"U","TLE_LINE1":"1 53574U 22101AZ  23160.51929363 -.00001671  00000-0 -86904-4 0  9998","EPOCH":"2023-06-09T12:27:46.969632","RA_OF_ASC_NODE":"241.7297","REF_FRAME":"TEME","COUNTRY_CODE":"US","TLE_LINE2":"2 53574  53.2160 241.7297 0000434  82.5105 277.5937 15.08861589 44859","EPHEMERIS_TYPE":"0","INCLINATION":"53.2160"},{"REV_AT_EPOCH":"4485","MEAN_MOTION":"15.08836515","LAUNCH_DATE":"2022-08-19","OBJECT_TYPE":"PAYLOAD","SITE":"AFETR","GP_ID":"233553398","ARG_OF_PERICENTER":"89.9642","MEAN_MOTION_DDOT":"0.0000000000000","BSTAR":"0.00005484900000","FILE":"3928988","REF_FRAME":"TEME","COUNTRY_CODE":"US","TLE_LINE2":"2 53575  53.2158 241.7770 0000510  89.9642 270.1409 15.08836515 44859","EPHEMERIS_TYPE":"0","INCLINATION":"53.2158","TIME_SYSTEM":"UTC","MEAN_ANOMALY":"270.1409","MEAN_ELEMENT_THEORY":"SGP4","CLASSIFICATION_TYPE":"U","TLE_LINE1":"1 53575U 22101BA  23160.52667638  .00000585  00000-0  54849-4 0  9998","EPOCH":"2023-06-09T12:38:24.839232","RA_OF_ASC_NODE":"241.7770","NORAD_CAT_ID":"53575","MEAN_MOTION_DOT":"0.00000585","ECCENTRICITY":"0.00005100","SEMIMAJOR_AXIS":"6917.891","CENTER_NAME":"EARTH","RCS_SIZE":"LARGE","PERIOD":"95.438","OBJECT_NAME":"STARLINK-4551","APOAPSIS":"540.109","PERIAPSIS":"539.403","ELEMENT_SET_NO":"999","OBJECT_ID":"2022-101BA","DECAY_DATE":null},{"RA_OF_ASC_NODE":"241.7803","TLE_LINE1":"1 53576U 22101BB  23160.52763206  .00000495  00000-0  49209-4 0  9991","EPOCH":"2023-06-09T12:39:47.409984","CLASSIFICATION_TYPE":"U","TIME_SYSTEM":"UTC","MEAN_ELEMENT_THEORY":"SGP4","MEAN_ANOMALY":"266.2135","INCLINATION":"53.2152","TLE_LINE2":"2 53576  53.2152 241.7803 0000965  93.8967 266.2135 15.08838160 44859","EPHEMERIS_TYPE":"0","REF_FRAME":"TEME","COUNTRY_CODE":"US","MEAN_MOTION_DDOT":"0.0000000000000","FILE":"3928988","BSTAR":"0.00004920900000","ARG_OF_PERICENTER":"93.8967","GP_ID":"233553399","SITE":"AFETR","OBJECT_TYPE":"PAYLOAD","LAUNCH_DATE":"2022-08-19","REV_AT_EPOCH":"4485","MEAN_MOTION":"15.08838160","OBJECT_ID":"2022-101BB","DECAY_DATE":null,"ELEMENT_SET_NO":"999","PERIAPSIS":"539.083","APOAPSIS":"540.419","OBJECT_NAME":"STARLINK-4581","PERIOD":"95.438","RCS_SIZE":"LARGE","CENTER_NAME":"EARTH","SEMIMAJOR_AXIS":"6917.886","ECCENTRICITY":"0.00009650","MEAN_MOTION_DOT":"0.00000495","NORAD_CAT_ID":"53576"},{"LAUNCH_DATE":"2022-08-19","REV_AT_EPOCH":"4485","MEAN_MOTION":"15.08835478","OBJECT_TYPE":"PAYLOAD","GP_ID":"233553392","SITE":"AFETR","MEAN_MOTION_DDOT":"0.0000000000000","BSTAR":"0.00013198000000","FILE":"3928988","ARG_OF_PERICENTER":"77.4215","TLE_LINE2":"2 53577  53.2150 241.7564 0001136  77.4215 282.6904 15.08835478 44852","EPHEMERIS_TYPE":"0","REF_FRAME":"TEME","COUNTRY_CODE":"US","INCLINATION":"53.2150","TLE_LINE1":"1 53577U 22101BC  23160.52299163  .00001813  00000-0  13198-3 0  9990","CLASSIFICATION_TYPE":"U","EPOCH":"2023-06-09T12:33:06.476832","TIME_SYSTEM":"UTC","MEAN_ANOMALY":"282.6904","MEAN_ELEMENT_THEORY":"SGP4","RA_OF_ASC_NODE":"241.7564","NORAD_CAT_ID":"53577","ECCENTRICITY":"0.00011360","MEAN_MOTION_DOT":"0.00001813","SEMIMAJOR_AXIS":"6917.894","PERIOD":"95.438","RCS_SIZE":"LARGE","CENTER_NAME":"EARTH","OBJECT_NAME":"STARLINK-4553","APOAPSIS":"540.545","OBJECT_ID":"2022-101BC","DECAY_DATE":null,"ELEMENT_SET_NO":"999","PERIAPSIS":"538.973"},{"RCS_SIZE":"LARGE","CENTER_NAME":"EARTH","PERIOD":"95.437","SEMIMAJOR_AXIS":"6917.875","ECCENTRICITY":"0.00010140","MEAN_MOTION_DOT":"0.00000830","NORAD_CAT_ID":"53578","PERIAPSIS":"539.039","ELEMENT_SET_NO":"999","OBJECT_ID":"2022-101BD","DECAY_DATE":null,"APOAPSIS":"540.442","OBJECT_NAME":"STARLINK-4556","ARG_OF_PERICENTER":"92.9283","MEAN_MOTION_DDOT":"0.0000000000000","FILE":"3928972","BSTAR":"0.00007023700000","SITE":"AFETR","GP_ID":"233553403","OBJECT_TYPE":"PAYLOAD","REV_AT_EPOCH":"4486","MEAN_MOTION":"15.08841695","LAUNCH_DATE":"2022-08-19","RA_OF_ASC_NODE":"241.3866","TIME_SYSTEM":"UTC","MEAN_ANOMALY":"267.1825","MEAN_ELEMENT_THEORY":"SGP4","TLE_LINE1":"1 53578U 22101BD  23160.57817074  .00000830  00000-0  70237-4 0  9999","CLASSIFICATION_TYPE":"U","EPOCH":"2023-06-09T13:52:33.951936","INCLINATION":"53.2169","REF_FRAME":"TEME","COUNTRY_CODE":"US","TLE_LINE2":"2 53578  53.2169 241.3866 0001014  92.9283 267.1825 15.08841695 44865","EPHEMERIS_TYPE":"0"},{"DECAY_DATE":null,"OBJECT_ID":"2022-101BE","ELEMENT_SET_NO":"999","PERIAPSIS":"539.063","OBJECT_NAME":"STARLINK-4580","APOAPSIS":"540.388","SEMIMAJOR_AXIS":"6917.860","PERIOD":"95.437","CENTER_NAME":"EARTH","RCS_SIZE":"LARGE","NORAD_CAT_ID":"53579","MEAN_MOTION_DOT":"0.00002016","ECCENTRICITY":"0.00009580","TLE_LINE1":"1 53579U 22101BE  23160.64072607  .00002016  00000-0  14471-3 0  9998","CLASSIFICATION_TYPE":"U","EPOCH":"2023-06-09T15:22:38.732448","MEAN_ELEMENT_THEORY":"SGP4","MEAN_ANOMALY":"267.9251","TIME_SYSTEM":"UTC","RA_OF_ASC_NODE":"241.0629","EPHEMERIS_TYPE":"0","TLE_LINE2":"2 53579  53.2153 241.0629 0000958  92.1850 267.9251 15.08846554 44872","COUNTRY_CODE":"US","REF_FRAME":"TEME","INCLINATION":"53.2153","GP_ID":"233579555","SITE":"AFETR","BSTAR":"0.00014471000000","FILE":"3929125","MEAN_MOTION_DDOT":"0.0000000000000","ARG_OF_PERICENTER":"92.1850","LAUNCH_DATE":"2022-08-19","MEAN_MOTION":"15.08846554","REV_AT_EPOCH":"4487","OBJECT_TYPE":"PAYLOAD"},{"EPOCH":"2023-06-09T18:29:34.044288","TLE_LINE1":"1 53588U 22104A   23160.77053292  .00000176  00000-0  29174-4 0  9996","CLASSIFICATION_TYPE":"U","TIME_SYSTEM":"UTC","MEAN_ELEMENT_THEORY":"SGP4","MEAN_ANOMALY":"259.9571","RA_OF_ASC_NODE":"71.1355","TLE_LINE2":"2 53588  53.2173  71.1355 0001344 100.1573 259.9571 15.08835109 44537","EPHEMERIS_TYPE":"0","REF_FRAME":"TEME","COUNTRY_CODE":"US","INCLINATION":"53.2173","GP_ID":"233580056","SITE":"AFETR","MEAN_MOTION_DDOT":"0.0000000000000","FILE":"3929125","BSTAR":"0.00002917400000","ARG_OF_PERICENTER":"100.1573","LAUNCH_DATE":"2022-08-28","REV_AT_EPOCH":"4453","MEAN_MOTION":"15.08835109","OBJECT_TYPE":"PAYLOAD","OBJECT_ID":"2022-104A","DECAY_DATE":null,"ELEMENT_SET_NO":"999","PERIAPSIS":"538.831","OBJECT_NAME":"STARLINK-4691","APOAPSIS":"540.690","SEMIMAJOR_AXIS":"6917.895","PERIOD":"95.438","CENTER_NAME":"EARTH","RCS_SIZE":"LARGE","NORAD_CAT_ID":"53588","ECCENTRICITY":"0.00013440","MEAN_MOTION_DOT":"0.00000176"},{"ELEMENT_SET_NO":"999","PERIAPSIS":"539.050","DECAY_DATE":null,"OBJECT_ID":"2022-104B","APOAPSIS":"540.418","OBJECT_NAME":"STARLINK-4673","RCS_SIZE":"LARGE","CENTER_NAME":"EARTH","PERIOD":"95.437","SEMIMAJOR_AXIS":"6917.869","ECCENTRICITY":"0.00009890","MEAN_MOTION_DOT":"-0.00000248","NORAD_CAT_ID":"53589","RA_OF_ASC_NODE":"72.2082","MEAN_ANOMALY":"261.1425","MEAN_ELEMENT_THEORY":"SGP4","TIME_SYSTEM":"UTC","CLASSIFICATION_TYPE":"U","TLE_LINE1":"1 53589U 22104B   23160.48714605 -.00000248  00000-0  24701-5 0  9990","EPOCH":"2023-06-09T11:41:29.418720","INCLINATION":"53.2166","COUNTRY_CODE":"US","REF_FRAME":"TEME","EPHEMERIS_TYPE":"0","TLE_LINE2":"2 53589  53.2166  72.2082 0000989  98.9679 261.1425 15.08843708 44340","ARG_OF_PERICENTER":"98.9679","BSTAR":"0.00000247010000","FILE":"3928876","MEAN_MOTION_DDOT":"0.0000000000000","SITE":"AFETR","GP_ID":"233547027","OBJECT_TYPE":"PAYLOAD","MEAN_MOTION":"15.08843708","REV_AT_EPOCH":"4434","LAUNCH_DATE":"2022-08-28"},{"SITE":"AFETR","GP_ID":"233546782","ARG_OF_PERICENTER":"85.7100","MEAN_MOTION_DDOT":"0.0000000000000","BSTAR":"-0.00011932000000","FILE":"3928876","REV_AT_EPOCH":"4431","MEAN_MOTION":"15.08828589","LAUNCH_DATE":"2022-08-28","OBJECT_TYPE":"PAYLOAD","TIME_SYSTEM":"UTC","MEAN_ANOMALY":"274.4025","MEAN_ELEMENT_THEORY":"SGP4","TLE_LINE1":"1 53590U 22104C   23160.17070116 -.00002186  00000-0 -11932-3 0  9994","EPOCH":"2023-06-09T04:05:48.580224","CLASSIFICATION_TYPE":"U","RA_OF_ASC_NODE":"73.7881","REF_FRAME":"TEME","COUNTRY_CODE":"US","TLE_LINE2":"2 53590  53.2184  73.7881 0001165  85.7100 274.4025 15.08828589 44315","EPHEMERIS_TYPE":"0","INCLINATION":"53.2184","SEMIMAJOR_AXIS":"6917.915","CENTER_NAME":"EARTH","RCS_SIZE":"LARGE","PERIOD":"95.438","NORAD_CAT_ID":"53590","ECCENTRICITY":"0.00011650","MEAN_MOTION_DOT":"-0.00002186","PERIAPSIS":"538.974","ELEMENT_SET_NO":"999","OBJECT_ID":"2022-104C","DECAY_DATE":null,"OBJECT_NAME":"STARLINK-4689","APOAPSIS":"540.586"},{"DECAY_DATE":null,"OBJECT_ID":"2022-104D","ELEMENT_SET_NO":"999","PERIAPSIS":"538.807","OBJECT_NAME":"STARLINK-4674","APOAPSIS":"540.689","SEMIMAJOR_AXIS":"6917.883","PERIOD":"95.438","CENTER_NAME":"EARTH","RCS_SIZE":"LARGE","NORAD_CAT_ID":"53591","MEAN_MOTION_DOT":"0.00000057","ECCENTRICITY":"0.00013600","CLASSIFICATION_TYPE":"U","TLE_LINE1":"1 53591U 22104D   23160.76316351  .00000057  00000-0  21647-4 0  9992","EPOCH":"2023-06-09T18:18:57.327264","MEAN_ANOMALY":"286.7021","MEAN_ELEMENT_THEORY":"SGP4","TIME_SYSTEM":"UTC","RA_OF_ASC_NODE":"71.0890","EPHEMERIS_TYPE":"0","TLE_LINE2":"2 53591  53.2178  71.0890 0001360  73.4121 286.7021 15.08839227 44407","COUNTRY_CODE":"US","REF_FRAME":"TEME","INCLINATION":"53.2178","GP_ID":"233579306","SITE":"AFETR","FILE":"3929125","BSTAR":"0.00002164700000","MEAN_MOTION_DDOT":"0.0000000000000","ARG_OF_PERICENTER":"73.4121","LAUNCH_DATE":"2022-08-28","MEAN_MOTION":"15.08839227","REV_AT_EPOCH":"4440","OBJECT_TYPE":"PAYLOAD"}];
